{
  "norad_id": 59284,
  "name": "YUNHAI-2 02E",
  "history": [
    {
      "epoch": "2026-03-28T22:14:36.512736Z",
      "apogee_km": 807.1821966599309,
      "perigee_km": 790.115799556429,
      "latitude_deg": 3.7580204734046127e-06,
      "longitude_deg": 142.89542370934086,
      "height_km": 805.3177512870309,
      "semi_major_axis_km": 7176.785998108179,
      "eccentricity": 0.001189,
      "inclination_deg": 50.0108,
      "raan_deg": 302.8878,
      "arg_perigee_deg": 136.1309,
      "mean_anomaly_deg": 224.0552,
      "mean_motion_rev_day": 14.27932793
    },
    {
      "epoch": "2026-03-29T01:36:09.666720Z",
      "apogee_km": 807.1826660945162,
      "perigee_km": 790.1148342234883,
      "latitude_deg": -5.5763628380174203e-05,
      "longitude_deg": 91.77627462460192,
      "height_km": 805.3678473462088,
      "semi_major_axis_km": 7176.785750159002,
      "eccentricity": 0.0011891,
      "inclination_deg": 50.0108,
      "raan_deg": 302.2948,
      "arg_perigee_deg": 136.614,
      "mean_anomaly_deg": 223.5712,
      "mean_motion_rev_day": 14.27932867
    },
    {
      "epoch": "2026-03-30T04:28:34.838976Z",
      "apogee_km": 807.1871390320011,
      "perigee_km": 790.104960017522,
      "latitude_deg": 1.4901908270996557e-05,
      "longitude_deg": 42.82288791605488,
      "height_km": 805.7625646591201,
      "semi_major_axis_km": 7176.783049524761,
      "eccentricity": 0.0011901,
      "inclination_deg": 50.0107,
      "raan_deg": 297.5499,
      "arg_perigee_deg": 140.5794,
      "mean_anomaly_deg": 219.5989,
      "mean_motion_rev_day": 14.27933673
    },
    {
      "epoch": "2026-03-30T06:09:21.409920Z",
      "apogee_km": 807.1883167948699,
      "perigee_km": 790.1035544096922,
      "latitude_deg": -2.6839190764311786e-05,
      "longitude_deg": 17.263328725246286,
      "height_km": 805.7870846005194,
      "semi_major_axis_km": 7176.78293560228,
      "eccentricity": 0.00119028,
      "inclination_deg": 50.0107,
      "raan_deg": 297.2534,
      "arg_perigee_deg": 140.8287,
      "mean_anomaly_deg": 219.3491,
      "mean_motion_rev_day": 14.27933707
    },
    {
      "epoch": "2026-03-30T14:33:14.264640Z",
      "apogee_km": 807.1944000698486,
      "perigee_km": 790.09600354533,
      "latitude_deg": 2.584643924125599e-05,
      "longitude_deg": -110.53454914199258,
      "height_km": 805.9087629236155,
      "semi_major_axis_km": 7176.7822018075885,
      "eccentricity": 0.00119123,
      "inclination_deg": 50.0106,
      "raan_deg": 295.7706,
      "arg_perigee_deg": 142.0841,
      "mean_anomaly_deg": 218.0915,
      "mean_motion_rev_day": 14.27933926
    },
    {
      "epoch": "2026-03-30T22:57:07.110720Z",
      "apogee_km": 807.1857823257787,
      "perigee_km": 790.1030330766553,
      "latitude_deg": -1.7319500500988762e-05,
      "longitude_deg": 121.66762911717731,
      "height_km": 806.0105492082203,
      "semi_major_axis_km": 7176.781407701216,
      "eccentricity": 0.00119014,
      "inclination_deg": 50.0106,
      "raan_deg": 294.2879,
      "arg_perigee_deg": 143.2825,
      "mean_anomaly_deg": 216.8907,
      "mean_motion_rev_day": 14.27934163
    },
    {
      "epoch": "2026-03-31T19:06:25.916256Z",
      "apogee_km": 807.182888910952,
      "perigee_km": 790.102153650304,
      "latitude_deg": 1.775699049085867e-05,
      "longitude_deg": 174.95285752373582,
      "height_km": 806.262840878631,
      "semi_major_axis_km": 7176.779521280628,
      "eccentricity": 0.00119,
      "inclination_deg": 50.0105,
      "raan_deg": 290.7292,
      "arg_perigee_deg": 146.2354,
      "mean_anomaly_deg": 213.9321,
      "mean_motion_rev_day": 14.27934726
    },
    {
      "epoch": "2026-04-01T20:18:04.370688Z",
      "apogee_km": 807.1910311789061,
      "perigee_km": 790.0916391175833,
      "latitude_deg": 6.567678893236094e-05,
      "longitude_deg": 151.5596905992358,
      "height_km": 806.5612999346207,
      "semi_major_axis_km": 7176.778335148245,
      "eccentricity": 0.0011913,
      "inclination_deg": 50.0104,
      "raan_deg": 286.2809,
      "arg_perigee_deg": 149.9191,
      "mean_anomaly_deg": 210.2411,
      "mean_motion_rev_day": 14.2793508
    },
    {
      "epoch": "2026-04-02T19:48:56.191968Z",
      "apogee_km": 807.2026372751916,
      "perigee_km": 790.0745446498004,
      "latitude_deg": -2.2587264142103165e-05,
      "longitude_deg": 153.7262938436872,
      "height_km": 806.8188674179498,
      "semi_major_axis_km": 7176.775590962496,
      "eccentricity": 0.0011933,
      "inclination_deg": 50.0103,
      "raan_deg": 282.1292,
      "arg_perigee_deg": 153.3958,
      "mean_anomaly_deg": 206.7571,
      "mean_motion_rev_day": 14.27935899
    },
    {
      "epoch": "2026-04-02T23:10:29.287200Z",
      "apogee_km": 807.2002094407735,
      "perigee_km": 790.073842975592,
      "latitude_deg": 5.468509253852815e-05,
      "longitude_deg": 102.60740445376892,
      "height_km": 806.8475559825202,
      "semi_major_axis_km": 7176.7740262081825,
      "eccentricity": 0.00119318,
      "inclination_deg": 50.0103,
      "raan_deg": 281.5361,
      "arg_perigee_deg": 153.8609,
      "mean_anomaly_deg": 206.2911,
      "mean_motion_rev_day": 14.27936366
    },
    {
      "epoch": "2026-04-03T21:00:34.490016Z",
      "apogee_km": 807.2077670581693,
      "perigee_km": 790.0610248389676,
      "latitude_deg": 6.253594790533147e-05,
      "longitude_deg": 130.33371007068402,
      "height_km": 807.054748798682,
      "semi_major_axis_km": 7176.771395948568,
      "eccentricity": 0.0011946,
      "inclination_deg": 50.0102,
      "raan_deg": 277.6808,
      "arg_perigee_deg": 157.0736,
      "mean_anomaly_deg": 203.0715,
      "mean_motion_rev_day": 14.27937151
    },
    {
      "epoch": "2026-04-04T20:31:26.225760Z",
      "apogee_km": 807.2141152302238,
      "perigee_km": 790.0530214472119,
      "latitude_deg": -2.0871996488015727e-05,
      "longitude_deg": 132.5006731534528,
      "height_km": 807.249539725748,
      "semi_major_axis_km": 7176.770568338718,
      "eccentricity": 0.0011956,
      "inclination_deg": 50.0102,
      "raan_deg": 273.5291,
      "arg_perigee_deg": 160.5435,
      "mean_anomaly_deg": 199.5938,
      "mean_motion_rev_day": 14.27937398
    },
    {
      "epoch": "2026-04-05T13:19:11.732160Z",
      "apogee_km": 807.2105639151005,
      "perigee_km": 790.0533494411275,
      "latitude_deg": -7.124486431547484e-06,
      "longitude_deg": -123.0943126497814,
      "height_km": 807.3624837776196,
      "semi_major_axis_km": 7176.768956678114,
      "eccentricity": 0.00119533,
      "inclination_deg": 50.0101,
      "raan_deg": 270.5635,
      "arg_perigee_deg": 163.0123,
      "mean_anomaly_deg": 197.1194,
      "mean_motion_rev_day": 14.27937879
    },
    {
      "epoch": "2026-04-05T20:02:17.939904Z",
      "apogee_km": 807.208483863179,
      "perigee_km": 790.054571728042,
      "latitude_deg": -1.753126596050931e-05,
      "longitude_deg": 134.6677980501397,
      "height_km": 807.4030347103949,
      "semi_major_axis_km": 7176.768527795611,
      "eccentricity": 0.0011951,
      "inclination_deg": 50.0101,
      "raan_deg": 269.3774,
      "arg_perigee_deg": 164.0062,
      "mean_anomaly_deg": 196.1232,
      "mean_motion_rev_day": 14.27938007
    },
    {
      "epoch": "2026-04-06T06:06:57.234240Z",
      "apogee_km": 807.2057847395699,
      "perigee_km": 790.0564666970777,
      "latitude_deg": -2.8823084555828046e-05,
      "longitude_deg": -18.68911027576483,
      "height_km": 807.460181557932,
      "semi_major_axis_km": 7176.768125718323,
      "eccentricity": 0.00119478,
      "inclination_deg": 50.0101,
      "raan_deg": 267.5981,
      "arg_perigee_deg": 165.5129,
      "mean_anomaly_deg": 194.613,
      "mean_motion_rev_day": 14.27938127
    },
    {
      "epoch": "2026-04-07T14:01:41.651904Z",
      "apogee_km": 807.2053212544124,
      "perigee_km": 790.052420217401,
      "latitude_deg": 5.934275820866474e-05,
      "longitude_deg": -144.31930703905527,
      "height_km": 807.6082686949128,
      "semi_major_axis_km": 7176.765870735906,
      "eccentricity": 0.00119503,
      "inclination_deg": 50.0101,
      "raan_deg": 261.9635,
      "arg_perigee_deg": 170.1861,
      "mean_anomaly_deg": 189.929,
      "mean_motion_rev_day": 14.279388
    },
    {
      "epoch": "2026-04-07T20:44:47.844096Z",
      "apogee_km": 807.2039387524692,
      "perigee_km": 790.0529047475702,
      "latitude_deg": -3.8213846743804265e-05,
      "longitude_deg": 113.44269560550337,
      "height_km": 807.6305642146832,
      "semi_major_axis_km": 7176.765421750019,
      "eccentricity": 0.0011949,
      "inclination_deg": 50.0102,
      "raan_deg": 260.7773,
      "arg_perigee_deg": 171.1484,
      "mean_anomaly_deg": 188.9643,
      "mean_motion_rev_day": 14.27938934
    },
    {
      "epoch": "2026-04-08T13:32:33.310752Z",
      "apogee_km": 807.2011905223571,
      "perigee_km": 790.0538905409558,
      "latitude_deg": -4.299308052124293e-05,
      "longitude_deg": -142.15214061026572,
      "height_km": 807.6777804501502,
      "semi_major_axis_km": 7176.764540531656,
      "eccentricity": 0.00119464,
      "inclination_deg": 50.0102,
      "raan_deg": 257.8117,
      "arg_perigee_deg": 173.6336,
      "mean_anomaly_deg": 186.4732,
      "mean_motion_rev_day": 14.27939197
    },
    {
      "epoch": "2026-04-09T19:46:31.109952Z",
      "apogee_km": 807.2097797149709,
      "perigee_km": 790.0400944566854,
      "latitude_deg": -8.99414437454053e-06,
      "longitude_deg": 117.77764024072737,
      "height_km": 807.7359118168968,
      "semi_major_axis_km": 7176.761937085827,
      "eccentricity": 0.0011962,
      "inclination_deg": 50.0102,
      "raan_deg": 252.4739,
      "arg_perigee_deg": 178.1422,
      "mean_anomaly_deg": 181.9539,
      "mean_motion_rev_day": 14.27939974
    }
  ]
}